#dP2020 11 20  0  0  0.00000000      96 __u+U ITR00 FIT  IAC
## 2132 432000.00000000   900.00000000 59173 0.0000000000000
+  124   C01C02C03C04C05C06C07C08C09C10C11C12C13C14C16C19C20
+        C21C22C23C24C25C26C27C28C29C30C32C33C34C35C36C37C38
+        C39C40C43C44C45C46C60E01E02E03E04E05E07E08E09E11E12
+        E13E14E15E18E19E21E24E25E26E27E30E31E33E36G01G02G03
+        G04G05G06G07G08G09G10G11G12G13G14G15G16G17G18G19G20
+        G21G22G23G24G25G26G27G28G29G30G31G32J01J02J03J07R01
+        R02R03R04R05R07R08R09R11R12R13R14R15R16R17R18R19R20
+        R21R22R23R24R25  0  0  0  0  0  0  0  0  0  0  0  0
++        13 13 13 13 13  8  8  8  8  8  7  7  8  7  8  8  8
++         7  8  8  7  8  7  8  8  7  8  8  8  8  8  8  8 10
++        10 10  9  9  9 11  0  5  5  5  4  5  5  4  4  4  5
++         4  4  4  5  5  4  5  4  4  4  4  4  5  4  4  3  4
++         3  3  3  4  3  3  3  4  4  3  4  4  3  4  3  4  4
++         7  4  3  4  3  3  3  4  3  4  4  4  9  8  8 13  6
++         6  6  6  6  5  5  5  0  5  6  6  6  6  5  6  6  6
++         5  6  6  6  9  0  0  0  0  0  0  0  0  0  0  0  0
%c M  cc GPS ccc cccc cccc cccc cccc ccccc ccccc ccccc ccccc
%c cc cc ccc ccc cccc cccc cccc cccc ccccc ccccc ccccc ccccc
%f  0.0000000  0.000000000  0.00000000000  0.000000000000000
%f  0.0000000  0.000000000  0.00000000000  0.000000000000000
%i    0    0    0    0      0      0      0      0         0
%i    0    0    0    0      0      0      0      0         0
/* INFORMATION & ANALYSIS CENTER (IAC)            RAPID DATA
/* S/V CLOCKS ARE ALIGNED TO GNSS TIME                      
/* G:C1WC2W R:C1PC2P E:C1XC5X C:C2IC6I J:C1CC2S             
/* PCV:IGS14_2131 OL/AL:FES2004  NONE     YN ORB:CoN CLK:CoN
*  2020 11 20 14 30  0.00000000
PC01 -34340.683545  24516.269945    428.992403   -748.599367
PC02   4406.181338  41891.374686  -1063.521093    726.632745
PC03 -14768.517501  39456.085463   -847.670904    224.615141
PC04 -39635.967404  14450.369639    328.822225    -30.699985
PC05  21831.093404  36039.209940  -1320.932206   -373.368267
PC06 -10454.292277  35443.868769 -19468.280796    153.970730
PC07 -14700.795686  22637.016024  32589.942543    -56.716163
PC08 -25189.906781  30484.417504 -15070.414313   -715.701198
PC09   -749.382106  41652.565488  -4642.958665    925.287355
PC10   1960.854728  27709.219823  32027.276754   -138.308167
PC11  10119.737572  18834.066994 -17896.659312   -764.530663
PC12   -652.476297  27822.112235  -2253.969697    620.354399
PC13 -12778.049376  31154.465013 -25477.594212    752.419126
PC14  21081.002988  17754.369385  -4527.319590    284.563212
PC16  -8440.949699  36989.568653 -18097.937194   -613.942320
PC19 -24585.720967 -12306.974712  -4730.254956    625.114146
PC20 -15158.467193 -20068.270987  12073.446498   -897.198368
PC21  -3747.330520  16199.158094 -22406.587652   -728.546669
PC22 -19974.673449   2817.227742 -19279.544446   -795.851842
PC23  25502.613848 -11242.935216   1325.969507   -909.655716
PC24   5042.116109  15497.187624  22651.971767   -722.771465
PC25  22185.056126   2018.945005  16791.224833   -833.642675
PC26 -13178.554867  19137.038171  15477.721780    911.788528
PC27   6996.141314 -26118.324348  -6943.584461    436.009964
PC28  15107.562051 -11558.948883 -20407.960618   -143.649008
PC29 -14733.752381  -9131.173411  21866.100366    313.843419
PC30  -5894.480071 -25315.307479  10178.403686    406.460854
PC32   3690.367916 -16215.461486  22414.045108   -886.236557
PC33  24652.907751  12234.470714   4651.929759   -843.117664
PC34   6226.038413  24998.305622 -10707.689811   -804.549856
PC35 -14825.830774  11781.207097  20488.484540   -550.901216
PC36 -21980.873126  -2724.305728 -16951.075526   -830.552954
PC37  14287.953286 -18728.828741 -14922.459646   -873.726466
PC38 -20649.401080  32037.467916 -18143.129691    113.173983
PC39  -3398.457730  39154.718494 -15079.461704     25.371658
PC40  -4288.651855  22335.691291  35539.877647    102.920937
PC43  14689.642322   9648.271985 -21673.410948   -470.647710
PC44  -6280.899093  26233.791007   7089.251354   -106.613652
PC45 -25469.264021  11368.187009  -1268.522167 999999.999999
PC46  -5889.448615 -14989.022110 -22778.011130    536.136258
PC60      0.000000      0.000000      0.000000 999999.999999
PE01 -18776.128214 -12768.508014 -18985.972613   -986.721001
PE02  18847.137770  12735.452876  18937.446715    177.817430
PE03  17183.398858  23729.529494   4259.783599   -367.147767
PE04 -20658.966691  -7844.824755 -19697.285333   -651.722804
PE05   3575.468918  25900.899316 -13883.305320   -327.845066
PE07  11997.384675 -12937.324207  23762.978852   -464.346506
PE08  20559.752402   7511.890334  19924.504157   6088.873444
PE09 -11698.928698  13081.146662 -23843.064025   5858.951955
PE11 -18629.316766  21276.835153   8731.675719   6790.773443
PE12 -18727.159198   2780.981872  22756.374714   5496.762759
PE13  18627.755077 -21139.531257  -9055.347439    406.810956
PE14 -13609.788273 -15965.852039  11640.702942  -1232.091240
PE15  18683.323163  -3012.763383 -22747.850800    842.874181
PE18  20801.480134  12384.207298 -21466.160620  -1346.016657
PE19 -16038.091927 -24790.762925  -2124.073370    133.143844
PE21   2265.553326 -16431.900077 -24509.858030   -632.981003
PE24 -23043.041890  10306.054765  15476.135102   -593.288987
PE25  -2471.758104  16431.309595  24509.199447   -520.620173
PE26   7241.311212 -26721.047972  10463.681051   2474.110193
PE27  22575.064038 -10653.389494 -15888.417330     88.816391
PE30  29411.325813   1917.313114   2630.916164   3408.637927
PE31 -29505.884132  -1330.344515  -1988.061777   -475.852093
PE33  -7761.723935 -16864.774947  23061.882923   -463.504447
PE36  -7640.508154  26820.945649  -9922.753543    478.436280
PG01 -12988.134802  21546.306546  -8208.095484    805.502106
PG02  20219.483320 -12336.276979 -11349.354169   -544.867707
PG03  -5567.053104  14163.513777 -21845.266697     -8.907065
PG04  -2541.176870  23458.193309 -12146.097146   -157.109156
PG05  23604.471000  -3730.425660  11632.556338    -26.363567
PG06  16433.141312   2635.488004 -20649.528225     -1.746952
PG07   1653.337922  18230.103953  19398.320342   -418.137273
PG08  -8331.860027  16584.571971  18905.278633 999999.999999
PG09   7286.356087  25505.220475  -1191.655113   -291.868967
PG10 -21987.898959 -11823.438231   9535.486748   -509.185242
PG11 -11388.058410  23334.151215   5966.639785   -103.414846
PG12   9267.367422 -12517.534905 -21728.805960     37.769790
PG13  13712.154025  -7330.064115  21384.187413     66.824524
PG14  19588.120380  13850.882134  11395.294705     18.628173
PG15   6590.119937 -18213.905705  17665.645266   -188.716717
PG16 -23632.783630    956.950671  12309.831922   -239.124125
PG17  14058.993863  16727.544694 -14681.591118    356.450776
PG18  -2484.902030 -17226.952113  20038.746011    323.674940
PG19  15254.018457  10110.915751 -19560.740285    -75.811640
PG20 -12494.504042 -14673.699799  18312.440415    525.942442
PG21 -17696.830558  19485.961214   2013.718532     70.093464
PG22 -14087.778902  12092.123135 -18743.279776   -727.251333
PG23 -13352.581759 -15079.802681  17297.542484    102.438258
PG24  14258.505553 -21853.271348  -3880.721282      6.183149
PG25  -5279.947830 -16066.782916 -20785.449576     25.468306
PG26 -26287.363936  -4625.307496    606.929629      1.953958
PG27 -14237.722383   4015.148560  21912.877602    -17.762458
PG28  21438.918302  13303.293744   8580.698830    653.172045
PG29  -3876.617863 -26085.158908  -2986.865222   -240.292504
PG30  10624.119548  11613.968114  21436.680431   -338.851424
PG31 -18439.725185   -710.078257 -19331.473156    -82.636432
PG32 -15643.015481 -15823.814531 -14534.849436      2.046531
PJ01 -23973.785033  16947.266410 -25708.691280   -335.937365
PJ02 -30052.991390  25063.583501  20513.269467     -0.076597
PJ03 -27527.721781  26451.759805  22941.065409     -3.323312
PJ07 -25394.747874  33665.271701    -26.016675      0.052684
PR01 -18103.631199 -17912.822414   1335.908461     70.879697
PR02 -17312.800070  -5138.185838 -18012.434275    455.219026
PR03  -5718.286275   9654.021690 -22871.035082     25.904717
PR04   9120.106705  18662.419507 -14781.338178     62.304485
PR05  18659.664258  17294.925719   1639.067480     61.463502
PR07   5152.140293 -10187.975099  22841.960407    -41.436132
PR08  -9035.593390 -18742.412343  14817.061738    -55.806620
PR09  24718.713604  -5300.230738   3673.915694      8.756638
PR11      0.000000      0.000000      0.000000 999999.999999
PR12 -16696.912868  -4504.790823 -18730.922571    181.730351
PR13 -24633.297626   5261.583958  -4043.401000    -46.908810
PR14 -18057.290553  11896.539958  13536.949071     57.914426
PR15  -1160.246045  11572.648618  22725.812490    106.655448
PR16  17333.273367   3915.184648  18222.983658     -8.389983
PR17 -10304.967007  20984.440340  10273.067701    375.605319
PR18  -3386.341921  24364.779355  -6645.463855     56.864491
PR19   4620.367821  15496.817363 -19727.029068   -120.503000
PR20  11679.537725  -4856.766166 -22145.470166   -427.035724
PR21  10005.946021 -21534.472008  -9267.392969   -167.508893
PR22   2935.260877 -24152.044311   7799.455103    -82.837578
PR23  -8274.414159  -8240.643247  22673.586836    346.108312
PR24 -12165.654876   5604.102920  21733.707226     21.211777
PR25  13030.892056 -12667.468391 -17895.286025     -1.887915
EOF
